STARLINK-2053
1 27663C 21012AV  21325.16130792  .00003934  00000-0  26362-3 0  3258
2 27663  53.0528 177.4911 0002433  64.2178 239.9581 15.06388371    11
